ORBCOMM FM115           
1 41186U 15081H   25035.77312044  .00002050  00000+0  43889-3 0  9999
2 41186  46.9987 309.1342 0000525 192.3258 167.7616 14.62046903488390
ORBCOMM FM108           
1 41187U 15081J   25035.77468304  .00002498  00000+0  57819-3 0  9995
2 41187  47.0055  12.1300 0002348  40.0125 320.0933 14.57737469487552
ORBCOMM FM117           
1 41188U 15081K   25035.32982861  .00002409  00000+0  55885-3 0  9999
2 41188  47.0016  13.0375 0002561  50.4004 309.7107 14.57742651487455
ORBCOMM FM116           
1 41189U 15081L   25035.52576664  .00002487  00000+0  57564-3 0  9994
2 41189  47.0010 101.9658 0001707 204.2534 155.8271 14.57750224486297
